{
  "norad_id": 68433,
  "name": "TRANSPORTER-16 OBJECT T",
  "history": [
    {
      "epoch": "2026-04-14T03:31:59.485728Z",
      "apogee_km": 518.2716883849534,
      "perigee_km": 512.7957699779354,
      "latitude_deg": -2.0033306028045535e-05,
      "longitude_deg": 168.22882899283087,
      "height_km": 517.5791002221576,
      "semi_major_axis_km": 6893.670729181444,
      "eccentricity": 0.00039717,
      "inclination_deg": 97.452,
      "raan_deg": 63.5545,
      "arg_perigee_deg": 292.4049,
      "mean_anomaly_deg": 67.6763,
      "mean_motion_rev_day": 15.16795244
    }
  ]
}