{"fetched_at":"2026-04-16T17:13:58Z","count":4884,"tles":[{"name":"TRANSPORTER-16 OBJECT T","line1":"1 68433U 26067T   26104.14721627  .00003297  00000+0  17122-3 0  9994","line2":"2 68433  97.4520  63.5545 0003971 292.4049  67.6763 15.16795244  2226","category":"Other"}]}